OBJECT_NAME,OBJECT_ID,EPOCH,MEAN_MOTION,ECCENTRICITY,INCLINATION,RA_OF_ASC_NODE,ARG_OF_PERICENTER,MEAN_ANOMALY,EPHEMERIS_TYPE,CLASSIFICATION_TYPE,NORAD_CAT_ID,ELEMENT_SET_NO,REV_AT_EPOCH,BSTAR,MEAN_MOTION_DOT,MEAN_MOTION_DDOT
INTELSAT 21 (IS-21),2012-045A,2026-06-11T22:59:57.371424,1.00272216,.00013104,0.0174,292.1702,161.3743,93.7423,0,U,38749,999,5047,0,-.269E-5,0
INTELSAT 23 (IS-23),2012-057A,2026-06-11T23:05:24.690912,1.00268120,.0000076,0.0122,311.8277,221.3491,20.4699,0,U,38867,999,4990,0,-.269E-5,0
FM-6,2013-058A,2026-06-10T22:01:38.563680,1.00268329,.00016818,0.0114,47.7834,116.7333,308.7742,0,U,39360,999,4601,0,.2E-7,0
INTELSAT 30 (IS-30),2014-062A,2026-06-11T14:30:16.756704,1.00277984,.00012266,0.0279,49.7090,329.1224,3.6301,0,U,40271,999,673,0,-.135E-5,0
DIRECTV 14,2014-078B,2026-06-11T21:19:40.634400,1.00271223,.00003818,0.0104,344.5357,323.3247,173.0530,0,U,40333,999,4199,0,-.109E-5,0
DIRECTV 15,2015-026A,2026-06-11T16:10:42.830976,1.00269288,.00006347,0.0180,10.3830,273.8943,115.5426,0,U,40663,999,4040,0,-.86E-6,0
SKY MEXICO-1,2015-026B,2026-06-11T12:52:17.814720,1.00270302,.0002093,0.0185,327.3821,135.5940,271.1791,0,U,40664,999,4039,0,-.217E-5,0
INTELSAT 34 (IS-34),2015-039A,2026-06-11T21:32:09.436416,1.00269455,.00003514,0.0096,324.4083,357.3642,206.0131,0,U,40874,999,3958,0,-.269E-5,0
INTELSAT 31 (IS-31),2016-035A,2026-06-11T21:20:55.513824,1.00269164,.00010527,0.0157,269.6082,335.7344,240.0688,0,U,41581,999,3663,0,-.134E-5,0
INTELSAT 36 (IS-36),2016-053A,2026-06-11T18:42:14.150880,1.00272652,.0001733,0.0125,9.1974,322.6867,277.2852,0,U,41747,999,3590,0,-.8E-7,0
INTELSAT 32E (IS-32E),2017-007B,2026-06-11T23:14:41.739360,1.00273089,.00008415,0.0032,60.5207,234.0063,271.2798,0,U,41945,999,3417,0,-.253E-5,0
INTELSAT 35E (IS-35E),2017-041A,2026-06-11T21:38:11.872320,1.00270211,.00015513,0.0017,10.5447,65.4949,114.2754,0,U,42818,999,3276,0,-.222E-5,0
INTELSAT 37E (IS-37E),2017-059A,2026-06-11T21:42:53.132832,1.00272873,.00024071,0.0168,22.5222,76.1998,109.2450,0,U,42950,999,3201,0,-.124E-5,0
AZERSPACE 2 (IS-38),2018-074A,2026-06-11T03:11:40.360992,1.00271976,.00011981,0.0036,69.3548,12.8510,270.3100,0,U,43632,999,2838,0,.154E-5,0
HORIZONS-3E,2018-074B,2026-06-11T15:45:37.736064,1.00270916,.00009425,0.0168,153.8582,115.9640,35.5804,0,U,43633,999,2828,0,-.14E-6,0
AT&T T-16,2019-034A,2026-06-11T21:19:18.168672,1.00270368,.0000751,0.0245,66.1907,226.8419,186.1643,0,U,44333,999,2558,0,-.99E-6,0
INTELSAT 39 (IS-39),2019-049B,2026-06-11T17:56:51.566784,1.00273687,.00006866,0.0022,349.9949,308.6407,292.6211,0,U,44476,999,2507,0,.49E-6,0
GALAXY 30 (G-30),2020-056C,2026-06-11T16:04:20.942112,1.00270074,.00020954,0.0016,14.0582,71.7827,290.2690,0,U,46114,999,2123,0,.54E-6,0
GALAXY 33 (G-33),2022-128A,2026-06-11T17:44:44.440800,1.00270185,.00016674,0.0068,328.0284,116.5773,308.6721,0,U,54026,999,1368,0,.96E-6,0
GALAXY 34 (G-34),2022-128B,2026-06-11T16:03:13.549248,1.00273054,.00015763,0.0219,345.5529,108.0855,278.1799,0,U,54027,999,1385,0,0,0
GALAXY 31 (G-31),2022-153A,2026-06-11T16:05:28.334112,1.00270115,.00011304,0.0180,295.7377,136.8388,307.8081,0,U,54243,999,707,0,.3E-6,0
GALAXY 32 (G-32),2022-153B,2026-06-11T21:22:02.905824,1.00271384,.0002061,0.0100,7.3506,26.1221,96.2732,0,U,54244,999,1309,0,-.158E-5,0
GALAXY 35 (G-35),2022-170A,2026-06-11T14:30:46.708992,1.00270834,.00018886,0.0155,296.8943,146.7176,300.9339,0,U,54741,999,1283,0,-.145E-5,0
GALAXY 36 (G-36),2022-170B,2026-06-11T21:22:40.346400,1.00271633,.00025533,0.0379,128.0646,314.2948,49.5449,0,U,54742,999,1272,0,-.169E-5,0
GALAXY 37 (G-37),2023-112A,2026-06-11T16:03:50.989824,1.00270650,.00018275,0.0164,13.6173,65.4944,294.8664,0,U,57493,999,1048,0,.65E-6,0
