INTELSAT 21 (IS-21)     
1 38749U 12045A   26162.95830291 -.00000269  00000+0  00000+0 0  9993
2 38749   0.0174 292.1702 0001310 161.3743  93.7423  1.00272216 50473
INTELSAT 23 (IS-23)     
1 38867U 12057A   26162.96209133 -.00000269  00000+0  00000+0 0  9993
2 38867   0.0122 311.8277 0000076 221.3491  20.4699  1.00268120 49905
FM-6                    
1 39360U 13058A   26161.91780745  .00000002  00000+0  00000+0 0  9995
2 39360   0.0114  47.7834 0001681 116.7333 308.7742  1.00268329 46015
INTELSAT 30 (IS-30)     
1 40271U 14062A   26162.60436061 -.00000135  00000+0  00000+0 0  9998
2 40271   0.0279  49.7090 0001226 329.1224   3.6301  1.00277984  6734
DIRECTV 14              
1 40333U 14078B   26162.88866475 -.00000109  00000+0  00000+0 0  9991
2 40333   0.0104 344.5357 0000381 323.3247 173.0530  1.00271223 41997
DIRECTV 15              
1 40663U 15026A   26162.67410684 -.00000086  00000+0  00000+0 0  9999
2 40663   0.0180  10.3830 0000634 273.8943 115.5426  1.00269288 40402
SKY MEXICO-1            
1 40664U 15026B   26162.53631730 -.00000217  00000+0  00000+0 0  9998
2 40664   0.0185 327.3821 0002093 135.5940 271.1791  1.00270302 40392
INTELSAT 34 (IS-34)     
1 40874U 15039A   26162.89733144 -.00000269  00000+0  00000+0 0  9993
2 40874   0.0096 324.4083 0000351 357.3642 206.0131  1.00269455 39583
INTELSAT 31 (IS-31)     
1 41581U 16035A   26162.88953141 -.00000134  00000+0  00000+0 0  9997
2 41581   0.0157 269.6082 0001052 335.7344 240.0688  1.00269164 36639
INTELSAT 36 (IS-36)     
1 41747U 16053A   26162.77933045 -.00000008  00000+0  00000+0 0  9990
2 41747   0.0125   9.1974 0001733 322.6867 277.2852  1.00272652 35906
INTELSAT 32E (IS-32E)   
1 41945U 17007B   26162.96853865 -.00000253  00000+0  00000+0 0  9994
2 41945   0.0032  60.5207 0000841 234.0063 271.2798  1.00273089 34172
INTELSAT 35E (IS-35E)   
1 42818U 17041A   26162.90152630 -.00000222  00000+0  00000+0 0  9994
2 42818   0.0017  10.5447 0001551  65.4949 114.2754  1.00270211 32769
INTELSAT 37E (IS-37E)   
1 42950U 17059A   26162.90478163 -.00000124  00000+0  00000+0 0  9993
2 42950   0.0168  22.5222 0002407  76.1998 109.2450  1.00272873 32012
AZERSPACE 2 (IS-38)     
1 43632U 18074A   26162.13310603  .00000154  00000+0  00000+0 0  9990
2 43632   0.0036  69.3548 0001198  12.8510 270.3100  1.00271976 28387
HORIZONS-3E             
1 43633U 18074B   26162.65668676 -.00000014  00000+0  00000+0 0  9990
2 43633   0.0168 153.8582 0000942 115.9640  35.5804  1.00270916 28280
AT&T T-16               
1 44333U 19034A   26162.88840473 -.00000099  00000+0  00000+0 0  9990
2 44333   0.0245  66.1907 0000751 226.8419 186.1643  1.00270368 25580
INTELSAT 39 (IS-39)     
1 44476U 19049B   26162.74781906  .00000049  00000+0  00000+0 0  9998
2 44476   0.0022 349.9949 0000686 308.6407 292.6211  1.00273687 25077
GALAXY 30 (G-30)        
1 46114U 20056C   26162.66968683  .00000054  00000+0  00000+0 0  9995
2 46114   0.0016  14.0582 0002095  71.7827 290.2690  1.00270074 21230
GALAXY 33 (G-33)        
1 54026U 22128A   26162.73940325  .00000096  00000+0  00000+0 0  9995
2 54026   0.0068 328.0284 0001667 116.5773 308.6721  1.00270185 13689
GALAXY 34 (G-34)        
1 54027U 22128B   26162.66890682  .00000000  00000+0  00000+0 0  9993
2 54027   0.0219 345.5529 0001576 108.0855 278.1799  1.00273054 13853
GALAXY 31 (G-31)        
1 54243U 22153A   26162.67046683  .00000030  00000+0  00000+0 0  9999
2 54243   0.0180 295.7377 0001130 136.8388 307.8081  1.00270115  7079
GALAXY 32 (G-32)        
1 54244U 22153B   26162.89031141 -.00000158  00000+0  00000+0 0  9999
2 54244   0.0100   7.3506 0002061  26.1221  96.2732  1.00271384 13094
GALAXY 35 (G-35)        
1 54741U 22170A   26162.60470728 -.00000145  00000+0  00000+0 0  9993
2 54741   0.0155 296.8943 0001888 146.7176 300.9339  1.00270834 12838
GALAXY 36 (G-36)        
1 54742U 22170B   26162.89074475 -.00000169  00000+0  00000+0 0  9990
2 54742   0.0379 128.0646 0002553 314.2948  49.5449  1.00271633 12726
GALAXY 37 (G-37)        
1 57493U 23112A   26162.66934016  .00000065  00000+0  00000+0 0  9998
2 57493   0.0164  13.6173 0001827  65.4944 294.8664  1.00270650 10485
